{
  "type": "FeatureCollection",
  "features": [
    {
      "type": "Feature",
      "properties": {
        "norad_id": 34815,
        "name": "COSMOS 2251 DEB",
        "group": "cosmos-2251-debris",
        "lat": -68.31746424702342,
        "lon": 178.18544605623893,
        "alt_km": 600.2861165431332,
        "timestamp": "2025-12-21T16:47:55.134164+00:00",
        "meta_object_name": "COSMOS 2251 DEB",
        "meta_object_id": "1993-036ABE",
        "meta_epoch": "2025-12-21T09:00:52.423200",
        "meta_mean_motion": 14.78402256,
        "meta_eccentricity": 0.0058814,
        "meta_inclination": 74.044,
        "meta_ra_of_asc_node": 224.843,
        "meta_arg_of_pericenter": 292.1166,
        "meta_mean_anomaly": 67.3772,
        "meta_ephemeris_type": 0,
        "meta_classification_type": "U",
        "meta_norad_cat_id": 34815,
        "meta_element_set_no": 999,
        "meta_rev_at_epoch": 88755,
        "meta_bstar": 0.00054059,
        "meta_mean_motion_dot": 4.019e-05,
        "meta_mean_motion_ddot": 0,
        "tle_line1": "1 34815U 93036ABE 25355.37560675  .00004019  00000+0  54059-3 0  9990",
        "tle_line2": "2 34815  74.0440 224.8430 0058814 292.1166  67.3772 14.78402256887552"
      },
      "geometry": {
        "type": "Point",
        "coordinates": [
          178.18544605623893,
          -68.31746424702342
        ]
      }
    },
    {
      "type": "Feature",
      "properties": {
        "norad_id": 34816,
        "name": "COSMOS 2251 DEB",
        "group": "cosmos-2251-debris",
        "lat": -27.62236157638424,
        "lon": 119.80266104364122,
        "alt_km": 1254.2351232319552,
        "timestamp": "2025-12-21T16:47:55.134174+00:00",
        "meta_object_name": "COSMOS 2251 DEB",
        "meta_object_id": "1993-036ABF",
        "meta_epoch": "2025-12-19T19:45:52.299072",
        "meta_mean_motion": 13.58341455,
        "meta_eccentricity": 0.03732066,
        "meta_inclination": 73.8867,
        "meta_ra_of_asc_node": 131.5634,
        "meta_arg_of_pericenter": 194.8145,
        "meta_mean_anomaly": 321.2377,
        "meta_ephemeris_type": 0,
        "meta_classification_type": "U",
        "meta_norad_cat_id": 34816,
        "meta_element_set_no": 999,
        "meta_rev_at_epoch": 82879,
        "meta_bstar": 0.00094697694,
        "meta_mean_motion_dot": 1.062e-05,
        "meta_mean_motion_ddot": 0,
        "tle_line1": "1 34816U 93036ABF 25353.82352198  .00001062  00000+0  94698-3 0  9996",
        "tle_line2": "2 34816  73.8867 131.5634 0373206 194.8145 321.2377 13.58341455828797"
      },
      "geometry": {
        "type": "Point",
        "coordinates": [
          119.80266104364122,
          -27.62236157638424
        ]
      }
    },
    {
      "type": "Feature",
      "properties": {
        "norad_id": 34818,
        "name": "COSMOS 2251 DEB",
        "group": "cosmos-2251-debris",
        "lat": -50.18491144637776,
        "lon": -99.61872800012078,
        "alt_km": 763.0745363558653,
        "timestamp": "2025-12-21T16:47:55.134184+00:00",
        "meta_object_name": "COSMOS 2251 DEB",
        "meta_object_id": "1993-036ABH",
        "meta_epoch": "2025-12-21T06:03:22.029120",
        "meta_mean_motion": 14.36976578,
        "meta_eccentricity": 0.0024585,
        "meta_inclination": 74.0362,
        "meta_ra_of_asc_node": 281.2869,
        "meta_arg_of_pericenter": 355.1217,
        "meta_mean_anomaly": 157.5455,
        "meta_ephemeris_type": 0,
        "meta_classification_type": "U",
        "meta_norad_cat_id": 34818,
        "meta_element_set_no": 999,
        "meta_rev_at_epoch": 87492,
        "meta_bstar": 0.00016074,
        "meta_mean_motion_dot": 4.52e-06,
        "meta_mean_motion_ddot": 0,
        "tle_line1": "1 34818U 93036ABH 25355.25233830  .00000452  00000+0  16074-3 0  9992",
        "tle_line2": "2 34818  74.0362 281.2869 0024585 355.1217 157.5455 14.36976578874920"
      },
      "geometry": {
        "type": "Point",
        "coordinates": [
          -99.61872800012078,
          -50.18491144637776
        ]
      }
    },
    {
      "type": "Feature",
      "properties": {
        "norad_id": 34819,
        "name": "COSMOS 2251 DEB",
        "group": "cosmos-2251-debris",
        "lat": 16.47516096135817,
        "lon": 130.2952253008721,
        "alt_km": 690.3886746830558,
        "timestamp": "2025-12-21T16:47:55.134195+00:00",
        "meta_object_name": "COSMOS 2251 DEB",
        "meta_object_id": "1993-036ABJ",
        "meta_epoch": "2025-12-20T09:50:49.162272",
        "meta_mean_motion": 14.64072467,
        "meta_eccentricity": 0.00155371,
        "meta_inclination": 74.018,
        "meta_ra_of_asc_node": 127.9117,
        "meta_arg_of_pericenter": 222.8872,
        "meta_mean_anomaly": 199.7592,
        "meta_ephemeris_type": 0,
        "meta_classification_type": "U",
        "meta_norad_cat_id": 34819,
        "meta_element_set_no": 999,
        "meta_rev_at_epoch": 88341,
        "meta_bstar": 0.001010903,
        "meta_mean_motion_dot": 5.289e-05,
        "meta_mean_motion_ddot": 0,
        "tle_line1": "1 34819U 93036ABJ 25354.41029123  .00005289  00000+0  10109-2 0  9993",
        "tle_line2": "2 34819  74.0180 127.9117 0015537 222.8872 199.7592 14.64072467883414"
      },
      "geometry": {
        "type": "Point",
        "coordinates": [
          130.2952253008721,
          16.47516096135817
        ]
      }
    },
    {
      "type": "Feature",
      "properties": {
        "norad_id": 34823,
        "name": "COSMOS 2251 DEB",
        "group": "cosmos-2251-debris",
        "lat": 46.567109489133024,
        "lon": -112.27212249051678,
        "alt_km": 617.0851373176838,
        "timestamp": "2025-12-21T16:47:55.134205+00:00",
        "meta_object_name": "COSMOS 2251 DEB",
        "meta_object_id": "1993-036ABN",
        "meta_epoch": "2025-12-20T12:08:33.613440",
        "meta_mean_motion": 14.5497594,
        "meta_eccentricity": 0.01541862,
        "meta_inclination": 74.0426,
        "meta_ra_of_asc_node": 87.5785,
        "meta_arg_of_pericenter": 170.4185,
        "meta_mean_anomaly": 189.9981,
        "meta_ephemeris_type": 0,
        "meta_classification_type": "U",
        "meta_norad_cat_id": 34823,
        "meta_element_set_no": 999,
        "meta_rev_at_epoch": 88494,
        "meta_bstar": 0.00040573854,
        "meta_mean_motion_dot": 2.017e-05,
        "meta_mean_motion_ddot": 0,
        "tle_line1": "1 34823U 93036ABN 25354.50594460  .00002017  00000+0  40574-3 0  9995",
        "tle_line2": "2 34823  74.0426  87.5785 0154186 170.4185 189.9981 14.54975940884942"
      },
      "geometry": {
        "type": "Point",
        "coordinates": [
          -112.27212249051678,
          46.567109489133024
        ]
      }
    },
    {
      "type": "Feature",
      "properties": {
        "norad_id": 34845,
        "name": "COSMOS 2251 DEB",
        "group": "cosmos-2251-debris",
        "lat": 12.43289323492076,
        "lon": -51.994874507332625,
        "alt_km": 748.9988685114085,
        "timestamp": "2025-12-21T16:47:55.134215+00:00",
        "meta_object_name": "COSMOS 2251 DEB",
        "meta_object_id": "1993-036ABP",
        "meta_epoch": "2025-12-19T17:31:51.884832",
        "meta_mean_motion": 14.45872035,
        "meta_eccentricity": 0.00225932,
        "meta_inclination": 74.0244,
        "meta_ra_of_asc_node": 135.3011,
        "meta_arg_of_pericenter": 295.1391,
        "meta_mean_anomaly": 64.7423,
        "meta_ephemeris_type": 0,
        "meta_classification_type": "U",
        "meta_norad_cat_id": 34845,
        "meta_element_set_no": 999,
        "meta_rev_at_epoch": 87567,
        "meta_bstar": 0.00020260782,
        "meta_mean_motion_dot": 6.95e-06,
        "meta_mean_motion_ddot": 0,
        "tle_line1": "1 34845U 93036ABP 25353.73046163  .00000695  00000+0  20261-3 0  9996",
        "tle_line2": "2 34845  74.0244 135.3011 0022593 295.1391  64.7423 14.45872035875670"
      },
      "geometry": {
        "type": "Point",
        "coordinates": [
          -51.994874507332625,
          12.43289323492076
        ]
      }
    },
    {
      "type": "Feature",
      "properties": {
        "norad_id": 34846,
        "name": "COSMOS 2251 DEB",
        "group": "cosmos-2251-debris",
        "lat": 28.159008610175768,
        "lon": 56.2020603018677,
        "alt_km": 750.512023379767,
        "timestamp": "2025-12-21T16:47:55.134225+00:00",
        "meta_object_name": "COSMOS 2251 DEB",
        "meta_object_id": "1993-036ABQ",
        "meta_epoch": "2025-12-21T11:07:37.718400",
        "meta_mean_motion": 14.47259356,
        "meta_eccentricity": 0.0026219,
        "meta_inclination": 74.0304,
        "meta_ra_of_asc_node": 245.4609,
        "meta_arg_of_pericenter": 310.7741,
        "meta_mean_anomaly": 49.1142,
        "meta_ephemeris_type": 0,
        "meta_classification_type": "U",
        "meta_norad_cat_id": 34846,
        "meta_element_set_no": 999,
        "meta_rev_at_epoch": 87530,
        "meta_bstar": 0.00055064,
        "meta_mean_motion_dot": 1.995e-05,
        "meta_mean_motion_ddot": 0,
        "tle_line1": "1 34846U 93036ABQ 25355.46363100  .00001995  00000+0  55064-3 0  9995",
        "tle_line2": "2 34846  74.0304 245.4609 0026219 310.7741  49.1142 14.47259356875308"
      },
      "geometry": {
        "type": "Point",
        "coordinates": [
          56.2020603018677,
          28.159008610175768
        ]
      }
    }
  ]
}